[{"OBJECT_NAME":"STARLINK-2428","OBJECT_ID":"2021-027H","EPOCH":"2026-03-09T12:09:34.121952","MEAN_MOTION":15.30198485,"ECCENTRICITY":9.773e-5,"INCLINATION":53.1604,"RA_OF_ASC_NODE":168.6419,"ARG_OF_PERICENTER":86.2995,"MEAN_ANOMALY":273.8117,"EPHEMERIS_TYPE":0,"CLASSIFICATION_TYPE":"U","NORAD_CAT_ID":48099,"ELEMENT_SET_NO":999,"REV_AT_EPOCH":27244,"BSTAR":0.00031528731,"MEAN_MOTION_DOT":8.99e-5,"MEAN_MOTION_DDOT":0},{"OBJECT_NAME":"CZ-6A DEB","OBJECT_ID":"2024-140AAN","EPOCH":"2026-03-09T15:08:07.195776","MEAN_MOTION":15.20547394,"ECCENTRICITY":0.0064261,"INCLINATION":89.3669,"RA_OF_ASC_NODE":306.3092,"ARG_OF_PERICENTER":93.6352,"MEAN_ANOMALY":267.2246,"EPHEMERIS_TYPE":0,"CLASSIFICATION_TYPE":"U","NORAD_CAT_ID":61480,"ELEMENT_SET_NO":999,"REV_AT_EPOCH":8198,"BSTAR":0.0033609,"MEAN_MOTION_DOT":0.00078405,"MEAN_MOTION_DDOT":0}]
